#dP2024 12 27  0  0  0.00000000      96 __u+U IGS20 FIT  IAC
## 2346 432000.00000000   900.00000000 60671 0.0000000000000
+   52   G02G03G04G05G06G07G08G09G10G11G12G13G14G15G16G17G18
+        G19G20G21G22G23G24G25G26G27G28G29G30G31G32R01R02R03
+        R04R05R07R08R09R11R12R14R15R16R17R18R19R20R21R22R24
+        R26  0  0  0  0  0  0  0  0  0  0  0  0  0  0  0  0
+          0  0  0  0  0  0  0  0  0  0  0  0  0  0  0  0  0
++         6  7  7  6  5  6  6  7  6  6  5  6  5  6  6  5  6
++         6  5  6  5  6  6  5  6  5  6  7  7  6  6  8  5  5
++         7  6  7  8  6  6  6  7  7  6  6  7  8  9  7  6  5
++         6  0  0  0  0  0  0  0  0  0  0  0  0  0  0  0  0
++         0  0  0  0  0  0  0  0  0  0  0  0  0  0  0  0  0
%c M  cc GPS ccc cccc cccc cccc cccc ccccc ccccc ccccc ccccc
%c cc cc ccc ccc cccc cccc cccc cccc ccccc ccccc ccccc ccccc
%f  0.0000000  0.000000000  0.00000000000  0.000000000000000
%f  0.0000000  0.000000000  0.00000000000  0.000000000000000
%i    0    0    0    0      0      0      0      0         0
%i    0    0    0    0      0      0      0      0         0
/* INFORMATION & ANALYSIS CENTER (IAC)      ULTRA-RAPID DATA
/* S/V CLOCKS ARE ALIGNED TO GNSS TIME                      
/* G:C1WC2W R:C1PC2P E:C1XC5X C:C2IC6I J:C1CC2S             
/* PCV:IGS20_2317 OL/AL:FES2004  NONE     YN ORB:CoN CLK:CoN
*  2024 12 27 21 30  0.00000000
PG02  14130.695883 -19506.072774  11213.869608   -281.908601
PG03  18360.975671 -12294.886102 -14815.337934    634.080864
PG04   7635.738024 -14217.862257 -21048.839084    502.754813
PG05 -26066.482282   5241.929188    484.389301   -197.290230
PG06  -9140.648742 -13527.309144 -20849.432383    -76.148869
PG07   5278.909535 -25124.173234   6342.279019    -14.394085
PG08  16177.790412  -3754.224460  20687.839704    448.290283
PG09  -1018.998147 -20226.804187 -17243.100492    505.007527
PG10  14719.111389  11016.245872  19526.847152   -252.073586
PG11 -15887.098929   -586.061998 -21225.696974   -752.665699
PG12 -21358.574594  10134.881930 -12349.219102   -560.975400
PG13 -17997.729045  -6315.417819  18351.299131    691.498181
PG14 -10710.298970 -13526.520621  20297.905721    568.676124
PG15 -15176.006081   6294.096925  20375.124698    244.695631
PG16  26479.199890   1573.760313  -4215.151981    -92.490337
PG17 -12392.113288 -23063.412254   4150.789047    500.632116
PG18  -4445.515455  24729.180112   8282.034800   -659.566535
PG19 -17441.724935 -19278.017981  -6603.688157    579.083895
PG20 -23877.269676   -577.729333 -11388.372592    367.542679
PG21  15876.309105 -13393.284553  16253.281063     98.727641
PG22 -17611.986212 -10930.702892  16814.041418    -89.001686
PG23   -893.233028  14983.284807  21934.420866    392.181865
PG24 -14408.957857  18434.943106  11714.558003   -469.744497
PG25  -8700.002347  15759.328016 -19803.530017    497.575778
PG26  21915.859540   5913.864439 -14281.566560    -25.100232
PG27  20135.176959   8029.699192  15329.976154    -33.761543
PG28   8921.941867  15485.465005 -19663.007501   -520.004313
PG29   -447.447361  20398.649902 -16983.049600   -552.285286
PG30  -3950.951526 -21093.551511  15627.385675   -252.056263
PG31  14485.125341   5504.675770 -21823.126535   -219.127573
PG32  16409.309417  21029.644922    379.939958   -551.948368
PR01  18176.296621    764.682865 -17874.924786    109.230775
PR02   4032.398656 -10072.515790 -23036.025355    -38.877910
PR03 -12805.320230 -16127.597025 -14959.917366    113.989648
PR04 -21745.820171 -13280.589508    953.094150    270.219346
PR05 -19247.017211  -3350.706716  16395.482605    142.851363
PR07  13099.164122  16231.082131  14766.883797     97.746546
PR08  21927.265862  13028.560564  -1072.110920     -6.189295
PR09 -15677.202078  16128.040191 -12097.834545    228.681354
PR11  14542.130739   3212.879254 -20698.594182      2.868571
PR12  23016.680574  -9593.541464  -5390.674569     48.917793
PR14    109.233471 -12456.744485  22260.952476     27.494822
PR15 -15965.702440  -2165.382326  19788.824915     72.759397
PR16 -22983.695752   9593.834705   5595.323210     31.997479
PR17  -2586.979958 -24253.339141  -7521.151649    152.278548
PR18  -8541.219509 -12979.073887 -20191.193131    178.976990
PR19 -10580.284213   2473.943604 -23070.520005   -303.465108
PR20  -6751.880628  22045.444632 -10942.183218   -123.863513
PR21   1810.469224  24608.015899   6424.103186   -163.182787
PR22   9002.236191  11996.334975  20667.553156    -53.041997
PR24   5712.999783 -22571.403380  10460.998912    -85.799085
PR26  21539.486217  13626.043917    801.611348   -132.374002
*  2024 12 27 21 45  0.00000000
PG02  13974.568719 -18133.034203  13596.425544   -281.900500
PG03  19902.521970 -12406.368200 -12519.586327    634.088121
PG04   9178.182097 -12318.205676 -21635.228454    502.760208
PG05 -26024.580071   5016.740332  -2392.036556   -197.291277
PG06  -8227.327220 -15672.800837 -19688.978260    -76.173947
PG07   5745.013028 -25501.267069   3558.121671    -14.393473
PG08  17679.188980  -1968.886895  19729.822697    448.297925
PG09    442.346008 -18781.907096 -18842.642914    505.021622
PG10  12516.560608  11445.712586  20761.592302   -252.087822
PG11 -14971.030790  -2874.199244 -21704.073092   -752.665453
PG12 -22608.974770  10046.677943  -9889.076912   -560.977419
PG13 -18956.569856  -8112.564130  16641.780158    691.499439
PG14  -8389.546683 -13951.106503  21067.924481    568.682767
PG15 -16907.808262   4644.491707  19469.977487    244.699503
PG16  25908.813466   1832.685374  -6950.295977    -92.481882
PG17 -11845.809476 -22732.547169   6935.112052    500.617199
PG18  -4939.595500  25385.236081   5534.778060   -659.565803
PG19 -17594.703204 -19867.483367  -3846.618594    579.087707
PG20 -22590.771229  -1292.784321 -13712.674393    367.542409
PG21  15582.246882 -11466.451653  18055.225046     98.729705
PG22 -15667.471958 -11249.067104  18510.356476    -89.003721
PG23  -3320.353310  15421.691326  21369.256456    392.188701
PG24 -14313.905026  16851.986891  13953.288355   -469.741409
PG25 -10820.833555  16025.765310 -18451.071243    497.575276
PG26  20316.123303   6555.605276 -16222.544701    -25.113370
PG27  21079.832593   9412.334249  13205.440195    -33.761187
PG28   8119.500074  17502.704836 -18267.847157   -520.013594
PG29  -1742.986820  18825.563365 -18649.759352   -552.282298
PG30  -3144.935453 -22570.167777  13569.814716   -252.048834
PG31  13568.976929   7766.830139 -21690.266744   -219.126771
PG32  16118.186913  21041.094536   3220.129756   -551.942592
PR01  20051.439396   1650.074092 -15674.308477    109.232014
PR02   6495.634624  -8623.002708 -23067.333383    -38.877952
PR03 -11127.870023 -15031.047957 -17264.548518    113.990485
PR04 -21765.375516 -13078.851479  -2276.762927    270.220027
PR05 -20929.126014  -4187.047071  13957.133062    142.851230
PR07  11466.301645  15144.773255  17096.681789     97.747643
PR08  21962.390862  12850.420693   2146.427115     -6.189190
PR09 -16747.933850  16901.860117  -9290.505763    228.682332
PR11  12254.690547   4512.445563 -21902.813118      2.866876
PR12  22215.211285  -9268.555587  -8445.158423     48.918294
PR14   2391.935969 -13869.423057  21273.832167     27.494864
PR15 -13757.723844  -3395.809625  21222.489995     72.758654
PR16 -22153.067177   9273.203096   8649.869324     31.997813
PR17  -2766.512523 -24991.583722  -4402.966961    152.281715
PR18  -8610.694713 -15371.074383 -18401.260422    178.978989
PR19 -10429.753778   -387.466765 -23267.778943   -303.466576
PR20  -6490.079155  20533.164889 -13689.999053   -123.863566
PR21   1994.465275  25208.014242   3258.652182   -163.186095
PR22   8985.184470  14440.619004  19046.759332    -53.043586
PR24   5583.145600 -21114.686944  13214.874126    -85.800071
PR26  21366.561786  13334.451156   4007.864261   -132.373696
EOF
